[{"OBJECT_NAME":"CSTP 1.2 (STC 1.2)","OBJECT_ID":"2023-091W","EPOCH":"2026-03-09T23:12:27.821952","MEAN_MOTION":15.2718076,"ECCENTRICITY":0.00204388,"INCLINATION":97.5258,"RA_OF_ASC_NODE":134.3262,"ARG_OF_PERICENTER":84.9592,"MEAN_ANOMALY":275.3979,"EPHEMERIS_TYPE":0,"CLASSIFICATION_TYPE":"U","NORAD_CAT_ID":57186,"ELEMENT_SET_NO":999,"REV_AT_EPOCH":14930,"BSTAR":0.00043035718,"MEAN_MOTION_DOT":0.00011466,"MEAN_MOTION_DDOT":0},{"OBJECT_NAME":"STARLINK-32655","OBJECT_ID":"2024-229L","EPOCH":"2026-03-09T00:05:52.182816","MEAN_MOTION":15.27575873,"ECCENTRICITY":0.00015851,"INCLINATION":42.9989,"RA_OF_ASC_NODE":274.8291,"ARG_OF_PERICENTER":276.7643,"MEAN_ANOMALY":83.3028,"EPHEMERIS_TYPE":0,"CLASSIFICATION_TYPE":"U","NORAD_CAT_ID":62202,"ELEMENT_SET_NO":999,"REV_AT_EPOCH":7045,"BSTAR":0.00091419138,"MEAN_MOTION_DOT":0.00024977,"MEAN_MOTION_DDOT":0}]
